{
  "norad_id": 25019,
  "name": "USA 134",
  "history": [
    {
      "epoch": "2026-03-28T21:05:44.290176",
      "apogee_km": 35815.119704727746,
      "perigee_km": 35759.70573928308,
      "latitude_deg": 5.289085351991277,
      "longitude_deg": 6.282544639892876,
      "semi_major_axis_km": 42165.54972200542,
      "eccentricity": 0.0006571,
      "inclination_deg": 12.6905,
      "raan_deg": 22.3187,
      "arg_perigee_deg": 316.7634,
      "mean_anomaly_deg": 51.2434,
      "mean_motion_rev_day": 1.00268868
    }
  ]
}